[{"OBJECT_NAME":"HXMT (HUIYAN)","OBJECT_ID":"2017-034A","EPOCH":"2026-03-05T23:02:11.464224","MEAN_MOTION":15.17400287,"ECCENTRICITY":0.00325653,"INCLINATION":43.0151,"RA_OF_ASC_NODE":37.4076,"ARG_OF_PERICENTER":213.1831,"MEAN_ANOMALY":146.6974,"EPHEMERIS_TYPE":0,"CLASSIFICATION_TYPE":"U","NORAD_CAT_ID":42758,"ELEMENT_SET_NO":999,"REV_AT_EPOCH":48197,"BSTAR":0.00031056796,"MEAN_MOTION_DOT":6.169e-5,"MEAN_MOTION_DDOT":0},{"OBJECT_NAME":"SAOCOM 1A","OBJECT_ID":"2018-076A","EPOCH":"2026-03-05T23:31:04.101312","MEAN_MOTION":14.82164947,"ECCENTRICITY":0.00012855,"INCLINATION":97.8883,"RA_OF_ASC_NODE":253.2049,"ARG_OF_PERICENTER":80.0936,"MEAN_ANOMALY":280.0422,"EPHEMERIS_TYPE":0,"CLASSIFICATION_TYPE":"U","NORAD_CAT_ID":43641,"ELEMENT_SET_NO":999,"REV_AT_EPOCH":40081,"BSTAR":7.4176284e-5,"MEAN_MOTION_DOT":5.38e-6,"MEAN_MOTION_DDOT":0},{"OBJECT_NAME":"H-2A R/B","OBJECT_ID":"2018-084L","EPOCH":"2026-03-05T13:51:59.103360","MEAN_MOTION":15.41138735,"ECCENTRICITY":0.0025756,"INCLINATION":98.8727,"RA_OF_ASC_NODE":281.0878,"ARG_OF_PERICENTER":39.2012,"MEAN_ANOMALY":321.1089,"EPHEMERIS_TYPE":0,"CLASSIFICATION_TYPE":"U","NORAD_CAT_ID":43682,"ELEMENT_SET_NO":999,"REV_AT_EPOCH":40514,"BSTAR":0.00058318,"MEAN_MOTION_DOT":0.00024381,"MEAN_MOTION_DDOT":0},{"OBJECT_NAME":"SAOCOM 1B","OBJECT_ID":"2020-059A","EPOCH":"2026-03-05T22:38:48.429312","MEAN_MOTION":14.82170706,"ECCENTRICITY":0.00014793,"INCLINATION":97.8882,"RA_OF_ASC_NODE":252.2671,"ARG_OF_PERICENTER":82.6381,"MEAN_ANOMALY":277.5,"EPHEMERIS_TYPE":0,"CLASSIFICATION_TYPE":"U","NORAD_CAT_ID":46265,"ELEMENT_SET_NO":999,"REV_AT_EPOCH":29819,"BSTAR":0.00017632911,"MEAN_MOTION_DOT":1.352e-5,"MEAN_MOTION_DDOT":0},{"OBJECT_NAME":"CSS (TIANHE)","OBJECT_ID":"2021-035A","EPOCH":"2026-03-05T22:33:18.119520","MEAN_MOTION":15.60447182,"ECCENTRICITY":0.00068802,"INCLINATION":41.4658,"RA_OF_ASC_NODE":230.9734,"ARG_OF_PERICENTER":250.1024,"MEAN_ANOMALY":109.9073,"EPHEMERIS_TYPE":0,"CLASSIFICATION_TYPE":"U","NORAD_CAT_ID":48274,"ELEMENT_SET_NO":999,"REV_AT_EPOCH":27702,"BSTAR":0.00022289437,"MEAN_MOTION_DOT":0.00018582,"MEAN_MOTION_DDOT":0},{"OBJECT_NAME":"COSMOS 2550","OBJECT_ID":"2021-056A","EPOCH":"2026-03-05T23:54:24.693696","MEAN_MOTION":15.33837069,"ECCENTRICITY":0.00084485,"INCLINATION":67.1449,"RA_OF_ASC_NODE":52.1042,"ARG_OF_PERICENTER":269.7032,"MEAN_ANOMALY":90.3155,"EPHEMERIS_TYPE":0,"CLASSIFICATION_TYPE":"U","NORAD_CAT_ID":48865,"ELEMENT_SET_NO":999,"REV_AT_EPOCH":26289,"BSTAR":-3.14377e-7,"MEAN_MOTION_DOT":-2.02e-6,"MEAN_MOTION_DDOT":0},{"OBJECT_NAME":"CZ-2C R/B","OBJECT_ID":"2022-058K","EPOCH":"2026-03-05T23:25:20.942976","MEAN_MOTION":15.53915448,"ECCENTRICITY":0.00422359,"INCLINATION":50.1901,"RA_OF_ASC_NODE":337.3893,"ARG_OF_PERICENTER":185.0205,"MEAN_ANOMALY":175.0348,"EPHEMERIS_TYPE":0,"CLASSIFICATION_TYPE":"U","NORAD_CAT_ID":52794,"ELEMENT_SET_NO":999,"REV_AT_EPOCH":20955,"BSTAR":0.00053890894,"MEAN_MOTION_DOT":0.00036514,"MEAN_MOTION_DDOT":0},{"OBJECT_NAME":"CZ-2C R/B","OBJECT_ID":"2022-132E","EPOCH":"2026-03-05T23:24:46.827936","MEAN_MOTION":15.61474995,"ECCENTRICITY":0.00207755,"INCLINATION":97.296,"RA_OF_ASC_NODE":68.1809,"ARG_OF_PERICENTER":103.809,"MEAN_ANOMALY":256.5482,"EPHEMERIS_TYPE":0,"CLASSIFICATION_TYPE":"U","NORAD_CAT_ID":54039,"ELEMENT_SET_NO":999,"REV_AT_EPOCH":18979,"BSTAR":0.0004999675,"MEAN_MOTION_DOT":0.00043217,"MEAN_MOTION_DDOT":0},{"OBJECT_NAME":"GSLV R/B","OBJECT_ID":"2022-138AN","EPOCH":"2026-03-05T17:01:35.776704","MEAN_MOTION":14.96742639,"ECCENTRICITY":0.00224693,"INCLINATION":87.3887,"RA_OF_ASC_NODE":167.6944,"ARG_OF_PERICENTER":160.4976,"MEAN_ANOMALY":199.7121,"EPHEMERIS_TYPE":0,"CLASSIFICATION_TYPE":"U","NORAD_CAT_ID":54149,"ELEMENT_SET_NO":999,"REV_AT_EPOCH":18333,"BSTAR":0.00040527532,"MEAN_MOTION_DOT":4.682e-5,"MEAN_MOTION_DDOT":0},{"OBJECT_NAME":"XRISM","OBJECT_ID":"2023-137A","EPOCH":"2026-03-05T19:26:58.261056","MEAN_MOTION":15.11447555,"ECCENTRICITY":0.0008081,"INCLINATION":31.0028,"RA_OF_ASC_NODE":308.7544,"ARG_OF_PERICENTER":358.9936,"MEAN_ANOMALY":1.0685,"EPHEMERIS_TYPE":0,"CLASSIFICATION_TYPE":"U","NORAD_CAT_ID":57800,"ELEMENT_SET_NO":999,"REV_AT_EPOCH":13720,"BSTAR":0.00040520683,"MEAN_MOTION_DOT":7.125e-5,"MEAN_MOTION_DDOT":0},{"OBJECT_NAME":"ACS3","OBJECT_ID":"2024-077B","EPOCH":"2026-03-05T19:48:44.619552","MEAN_MOTION":13.89408193,"ECCENTRICITY":0.00567515,"INCLINATION":97.2101,"RA_OF_ASC_NODE":6.8064,"ARG_OF_PERICENTER":86.8821,"MEAN_ANOMALY":273.8834,"EPHEMERIS_TYPE":0,"CLASSIFICATION_TYPE":"U","NORAD_CAT_ID":59588,"ELEMENT_SET_NO":999,"REV_AT_EPOCH":9366,"BSTAR":0.021327466,"MEAN_MOTION_DOT":0.00026418,"MEAN_MOTION_DDOT":0},{"OBJECT_NAME":"SZ-21 MODULE","OBJECT_ID":"2025-246C","EPOCH":"2026-03-05T19:22:19.378272","MEAN_MOTION":15.68194204,"ECCENTRICITY":0.00014276,"INCLINATION":41.4734,"RA_OF_ASC_NODE":227.2544,"ARG_OF_PERICENTER":292.143,"MEAN_ANOMALY":67.926,"EPHEMERIS_TYPE":0,"CLASSIFICATION_TYPE":"U","NORAD_CAT_ID":66515,"ELEMENT_SET_NO":999,"REV_AT_EPOCH":1746,"BSTAR":0.00036031689,"MEAN_MOTION_DOT":0.0004131,"MEAN_MOTION_DDOT":0}]
