HXMT (HUIYAN)           
1 42758U 17034A   26064.95985491  .00006169  00000+0  31057-3 0  9999
2 42758  43.0151  37.4076 0032565 213.1831 146.6974 15.17400287481970
SAOCOM 1A               
1 43641U 18076A   26064.97990858  .00000538  00000+0  74176-4 0  9997
2 43641  97.8883 253.2049 0001285  80.0936 280.0422 14.82164947400817
H-2A R/B                
1 43682U 18084L   26064.57776740  .00024381  00000+0  58318-3 0  9990
2 43682  98.8727 281.0878 0025756  39.2012 321.1089 15.41138735405148
SAOCOM 1B               
1 46265U 20059A   26064.94361608  .00001352  00000+0  17633-3 0  9997
2 46265  97.8882 252.2671 0001479  82.6381 277.5000 14.82170706298197
CSS (TIANHE)            
1 48274U 21035A   26064.93979305  .00018582  00000+0  22289-3 0  9998
2 48274  41.4658 230.9734 0006880 250.1024 109.9073 15.60447182277024
COSMOS 2550             
1 48865U 21056A   26064.99611914 -.00000202  00000+0 -31438-6 0  9993
2 48865  67.1449  52.1042 0008448 269.7032  90.3155 15.33837069262896
CZ-2C R/B               
1 52794U 22058K   26064.97593684  .00036514  00000+0  53891-3 0  9990
2 52794  50.1901 337.3893 0042235 185.0205 175.0348 15.53915448209552
CZ-2C R/B               
1 54039U 22132E   26064.97554199  .00043217  00000+0  49997-3 0  9995
2 54039  97.2960  68.1809 0020775 103.8090 256.5482 15.61474995189797
GSLV R/B                
1 54149U 22138AN  26064.70944186  .00004682  00000+0  40528-3 0  9997
2 54149  87.3887 167.6944 0022469 160.4976 199.7121 14.96742639183338
XRISM                   
1 57800U 23137A   26064.81039654  .00007125  00000+0  40521-3 0  9999
2 57800  31.0028 308.7544 0008081 358.9936   1.0685 15.11447555137208
ACS3                    
1 59588U 24077B   26064.82551643  .00026418  00000+0  21327-1 0  9993
2 59588  97.2101   6.8064 0056751  86.8821 273.8834 13.89408193 93663
SZ-21 MODULE            
1 66515U 25246C   26064.80716873  .00041310  00000+0  36032-3 0  9995
2 66515  41.4734 227.2544 0001427 292.1430  67.9260 15.68194204 17467
